{
  "type": "FeatureCollection",
  "features": [
    {
      "type": "Feature",
      "properties": {
        "norad_id": 66583,
        "name": "STARLINK-35941",
        "group": "last-30-days",
        "lat": -32.253706739929825,
        "lon": -7.3470431236244815,
        "alt_km": 417.0995938114693,
        "timestamp": "2025-12-11T05:00:25.075511+00:00",
        "meta_object_name": "STARLINK-35941",
        "meta_object_id": "2025-268AC",
        "meta_epoch": "2025-12-10T22:00:03.000096",
        "meta_mean_motion": 15.50608739,
        "meta_eccentricity": 0.00017891,
        "meta_inclination": 43.0001,
        "meta_ra_of_asc_node": 131.7362,
        "meta_arg_of_pericenter": 276.4069,
        "meta_mean_anomaly": 123.5766,
        "meta_ephemeris_type": 0,
        "meta_classification_type": "U",
        "meta_norad_cat_id": 66583,
        "meta_element_set_no": 999,
        "meta_rev_at_epoch": 437,
        "meta_bstar": -0.00141749,
        "meta_mean_motion_dot": -0.00082716,
        "meta_mean_motion_ddot": 0,
        "tle_line1": "1 66583U 25268AC  25344.91670139 -.00082716  00000+0 -14175-2 0  9990",
        "tle_line2": "2 66583  43.0001 131.7362 0001789 276.4069 123.5766 15.50608739  4378"
      },
      "geometry": {
        "type": "Point",
        "coordinates": [
          -7.3470431236244815,
          -32.253706739929825
        ]
      }
    },
    {
      "type": "Feature",
      "properties": {
        "norad_id": 66584,
        "name": "STARLINK-35939",
        "group": "last-30-days",
        "lat": -33.22128836832667,
        "lon": -5.323569866018871,
        "alt_km": 417.04358445389516,
        "timestamp": "2025-12-11T05:00:25.075524+00:00",
        "meta_object_name": "STARLINK-35939",
        "meta_object_id": "2025-268AD",
        "meta_epoch": "2025-12-10T22:00:03.000096",
        "meta_mean_motion": 15.50672797,
        "meta_eccentricity": 0.00018163,
        "meta_inclination": 43.0001,
        "meta_ra_of_asc_node": 131.7318,
        "meta_arg_of_pericenter": 280.2612,
        "meta_mean_anomaly": 121.6293,
        "meta_ephemeris_type": 0,
        "meta_classification_type": "U",
        "meta_norad_cat_id": 66584,
        "meta_element_set_no": 999,
        "meta_rev_at_epoch": 437,
        "meta_bstar": -0.0019861804,
        "meta_mean_motion_dot": -0.00115548,
        "meta_mean_motion_ddot": 0,
        "tle_line1": "1 66584U 25268AD  25344.91670139 -.00115548  00000+0 -19862-2 0  9999",
        "tle_line2": "2 66584  43.0001 131.7318 0001816 280.2612 121.6293 15.50672797  4377"
      },
      "geometry": {
        "type": "Point",
        "coordinates": [
          -5.323569866018871,
          -33.22128836832667
        ]
      }
    },
    {
      "type": "Feature",
      "properties": {
        "norad_id": 66585,
        "name": "STARLINK-35963",
        "group": "last-30-days",
        "lat": -34.1119917192602,
        "lon": -3.3547006903580407,
        "alt_km": 417.18030861797797,
        "timestamp": "2025-12-11T05:00:25.075559+00:00",
        "meta_object_name": "STARLINK-35963",
        "meta_object_id": "2025-268AE",
        "meta_epoch": "2025-12-10T22:00:03.000096",
        "meta_mean_motion": 15.50601248,
        "meta_eccentricity": 0.00016028,
        "meta_inclination": 43.0002,
        "meta_ra_of_asc_node": 131.7269,
        "meta_arg_of_pericenter": 271.5896,
        "meta_mean_anomaly": 132.2283,
        "meta_ephemeris_type": 0,
        "meta_classification_type": "U",
        "meta_norad_cat_id": 66585,
        "meta_element_set_no": 999,
        "meta_rev_at_epoch": 437,
        "meta_bstar": -0.0011820632,
        "meta_mean_motion_dot": -0.00069134,
        "meta_mean_motion_ddot": 0,
        "tle_line1": "1 66585U 25268AE  25344.91670139 -.00069134  00000+0 -11821-2 0  9996",
        "tle_line2": "2 66585  43.0002 131.7269 0001602 271.5896 132.2283 15.50601248  4374"
      },
      "geometry": {
        "type": "Point",
        "coordinates": [
          -3.3547006903580407,
          -34.1119917192602
        ]
      }
    },
    {
      "type": "Feature",
      "properties": {
        "norad_id": 66586,
        "name": "TJS-21",
        "group": "last-30-days",
        "lat": -51.60679801299006,
        "lon": 122.98859088016363,
        "alt_km": 2564.8335850048707,
        "timestamp": "2025-12-11T05:00:25.075577+00:00",
        "meta_object_name": "TJS-21",
        "meta_object_id": "2025-269A",
        "meta_epoch": "2025-12-09T17:35:27.978144",
        "meta_mean_motion": 2.00565752,
        "meta_eccentricity": 0.68056573,
        "meta_inclination": 63.268,
        "meta_ra_of_asc_node": 162.6671,
        "meta_arg_of_pericenter": 269.7843,
        "meta_mean_anomaly": 18.6559,
        "meta_ephemeris_type": 0,
        "meta_classification_type": "U",
        "meta_norad_cat_id": 66586,
        "meta_element_set_no": 999,
        "meta_rev_at_epoch": 37,
        "meta_bstar": -0.041606579,
        "meta_mean_motion_dot": 1.08e-05,
        "meta_mean_motion_ddot": 0,
        "tle_line1": "1 66586U 25269A   25343.73296271  .00001080  00000+0 -41607-1 0  9997",
        "tle_line2": "2 66586  63.2680 162.6671 6805657 269.7843  18.6559  2.00565752   379"
      },
      "geometry": {
        "type": "Point",
        "coordinates": [
          122.98859088016363,
          -51.60679801299006
        ]
      }
    },
    {
      "type": "Feature",
      "properties": {
        "norad_id": 66587,
        "name": "CZ-3B R/B",
        "group": "last-30-days",
        "lat": 50.312880371452586,
        "lon": -85.15220121780487,
        "alt_km": 15370.887405627494,
        "timestamp": "2025-12-11T05:00:25.075590+00:00",
        "meta_object_name": "CZ-3B R/B",
        "meta_object_id": "2025-269B",
        "meta_epoch": "2025-12-10T07:44:42.689184",
        "meta_mean_motion": 2.03033273,
        "meta_eccentricity": 0.75196659,
        "meta_inclination": 51.3444,
        "meta_ra_of_asc_node": 170.2038,
        "meta_arg_of_pericenter": 228.2816,
        "meta_mean_anomaly": 37.6674,
        "meta_ephemeris_type": 0,
        "meta_classification_type": "U",
        "meta_norad_cat_id": 66587,
        "meta_element_set_no": 999,
        "meta_rev_at_epoch": 40,
        "meta_bstar": 0.0011971439,
        "meta_mean_motion_dot": 0.00055207,
        "meta_mean_motion_ddot": 9.80452e-07,
        "tle_line1": "1 66587U 25269B   25344.32271631  .00055207  98045-6  11971-2 0  9991",
        "tle_line2": "2 66587  51.3444 170.2038 7519665 228.2816  37.6674  2.03033273   404"
      },
      "geometry": {
        "type": "Point",
        "coordinates": [
          -85.15220121780487,
          50.312880371452586
        ]
      }
    },
    {
      "type": "Feature",
      "properties": {
        "norad_id": 66588,
        "name": "STARLINK-36076",
        "group": "last-30-days",
        "lat": 39.730265859781326,
        "lon": -41.417498724565704,
        "alt_km": 409.541851135873,
        "timestamp": "2025-12-11T05:00:25.075602+00:00",
        "meta_object_name": "STARLINK-36076",
        "meta_object_id": "2025-270A",
        "meta_epoch": "2025-12-10T22:00:03.000096",
        "meta_mean_motion": 15.51066224,
        "meta_eccentricity": 0.00011052,
        "meta_inclination": 43.0002,
        "meta_ra_of_asc_node": 203.4021,
        "meta_arg_of_pericenter": 226.6623,
        "meta_mean_anomaly": 52.0151,
        "meta_ephemeris_type": 0,
        "meta_classification_type": "U",
        "meta_norad_cat_id": 66588,
        "meta_element_set_no": 999,
        "meta_rev_at_epoch": 410,
        "meta_bstar": -0.018760083,
        "meta_mean_motion_dot": -0.01020407,
        "meta_mean_motion_ddot": 0,
        "tle_line1": "1 66588U 25270A   25344.91670139 -.01020407  00000+0 -18760-1 0  9991",
        "tle_line2": "2 66588  43.0002 203.4021 0001105 226.6623  52.0151 15.51066224  4101"
      },
      "geometry": {
        "type": "Point",
        "coordinates": [
          -41.417498724565704,
          39.730265859781326
        ]
      }
    },
    {
      "type": "Feature",
      "properties": {
        "norad_id": 66589,
        "name": "STARLINK-35447",
        "group": "last-30-days",
        "lat": 38.48454534019797,
        "lon": -36.87285209407581,
        "alt_km": 410.079468562908,
        "timestamp": "2025-12-11T05:00:25.075612+00:00",
        "meta_object_name": "STARLINK-35447",
        "meta_object_id": "2025-270B",
        "meta_epoch": "2025-12-10T22:00:03.000096",
        "meta_mean_motion": 15.50595617,
        "meta_eccentricity": 0.00019388,
        "meta_inclination": 42.9995,
        "meta_ra_of_asc_node": 203.3914,
        "meta_arg_of_pericenter": 257.6749,
        "meta_mean_anomaly": 24.9254,
        "meta_ephemeris_type": 0,
        "meta_classification_type": "U",
        "meta_norad_cat_id": 66589,
        "meta_element_set_no": 999,
        "meta_rev_at_epoch": 421,
        "meta_bstar": -0.0013609402,
        "meta_mean_motion_dot": -0.00079427,
        "meta_mean_motion_ddot": 0,
        "tle_line1": "1 66589U 25270B   25344.91670139 -.00079427  00000+0 -13609-2 0  9995",
        "tle_line2": "2 66589  42.9995 203.3914 0001938 257.6749  24.9254 15.50595617  4214"
      },
      "geometry": {
        "type": "Point",
        "coordinates": [
          -36.87285209407581,
          38.48454534019797
        ]
      }
    }
  ]
}